{"fetched_at":"2026-05-16T13:19:17Z","count":7078,"tles":[{"name":"STARLINK-33752","line1":"1 63580U 25076M   26134.56368602  .00009375  00000+0  34972-3 0  9995","line2":"2 63580  42.9997 309.7915 0001472 269.5668  90.5015 15.27583703 61901","category":"Starlink"},{"name":"STARLINK-6169","line1":"1 76169C 23083P   23172.28243056 -.00189153  00000-0 -14343-2 0  1729","line2":"2 76169  43.0036  90.4852 0001787 268.4777 250.8064 15.71595479    18","category":"Starlink"},{"name":"STARLINK-4384","line1":"1 53218U 22084AF  26135.12913982  .00007351  00000+0  51191-3 0  9992","line2":"2 53218  97.4974 196.5828 0001750 152.5046 207.6274 15.05732850209900","category":"Starlink"},{"name":"STARLINK-32041","line1":"1 60202U 24124V   26135.25002315 -.00011720  00000+0 -36636-3 0  9997","line2":"2 60202  53.1591  13.3098 0001235  86.6365  21.6500 15.31711183  5814","category":"Starlink"},{"name":"STARLINK-35219","line1":"1 66443U 25259X   26134.64396717  .00010225  00000+0  38046-3 0  9998","line2":"2 66443  42.9995 262.2548 0001268 269.4433  90.6273 15.27589033 29461","category":"Starlink"},{"name":"FENGYUN 1C DEB","line1":"1 31227U 99025BLH 23175.98474333  .00014524  00000+0  46258-2 0  9991","line2":"2 31227  98.1637  88.5446 0109042 295.5346  63.4599 14.36527889838813","category":"Weather"},{"name":"STARLINK-1995","line1":"1 47590U 21009AU  26135.20045293  .00056763  00000+0  45927-3 0  9995","line2":"2 47590  53.0403  53.8063 0003216  79.8950 280.2430 15.70269700291230","category":"Starlink"},{"name":"STARLINK-5488","line1":"1 57250U 23094AJ  26134.35639655  .00000179  00000+0  16041-4 0  9997","line2":"2 57250  43.0050   8.9698 0001015 262.8042  97.2694 15.27579210157283","category":"Starlink"},{"name":"FENGYUN 1C DEB","line1":"1 32362U 99025CZF 26104.20585427  .00001580  00000+0  15378-2 0  9996","line2":"2 32362  99.8478  82.3539 0272115 334.5079  24.2848 13.65913636928013","category":"Weather"},{"name":"SL-4 R/B","line1":"1 61044U 24162B   24257.35435400  .20508142  12653-4  36769-3 0  9991","line2":"2 61044  51.6564 237.6431 0005037  55.6763  97.7759 16.47424603   277","category":"Other"},{"name":"KUIPER-00246","line1":"1 67151U 25301U   26135.24078904  .00001344  00000+0  20531-3 0  9997","line2":"2 67151  51.8998 133.8211 0000536  67.2368 292.8651 14.79923580 23575","category":"Other"},{"name":"STARLINK-2186","line1":"1 48561U 21041J   23362.48840805  .00002994  00000+0  21983-3 0  9994","line2":"2 48561  53.0551 103.1230 0001162  96.7377 263.3744 15.06389762145112","category":"Starlink"},{"name":"STARLINK-30544","line1":"1 58055U 23158E   26134.66440530  .00002406  00000+0  96957-4 0  9997","line2":"2 58055  43.0048  14.1453 0001629 256.0853 103.9817 15.27577389143662","category":"Starlink"},{"name":"STARLINK-34370","line1":"1 64309U 25123U   26134.42145407 -.00000828  00000+0 -61660-4 0  9990","line2":"2 64309  70.0056  28.7565 0001055 267.5223  92.5815 14.98322034 51465","category":"Starlink"},{"name":"SL-12 R/B(2)","line1":"1 19094U 88036E   26104.52128402 -.00000261  00000+0  00000+0 0  9993","line2":"2 19094  10.2552 323.0790 0020453 183.7883   7.7809  1.01115246121181","category":"Other"},{"name":"BREEZE-M R/B","line1":"1 42909U 17046C   26104.84444919 -.00000111  00000+0  00000+0 0  9990","line2":"2 42909   8.5217  68.8453 0756417 160.0955 203.1120  0.90332564 28583","category":"Other"},{"name":"ONEWEB-0495","line1":"1 54115U 22138C   26135.00581037  .00000061  00000+0  11917-3 0  9991","line2":"2 54115  87.9145 311.5877 0001800  69.6795 290.4531 13.19725528172440","category":"Other"},{"name":"COSMOS 2251 DEB","line1":"1 35795U 93036ASR 23178.79550700  .00060435  00000+0  37178-2 0  9999","line2":"2 35795  73.9991   3.3520 0015328  75.8030 284.4863 15.09624327756613","category":"Other"},{"name":"STARLINK-11516 [DTC]","line1":"1 62522U 25004M   26135.03223075  .00157017  00000+0  11978-2 0  9995","line2":"2 62522  42.9997  30.7310 0002464 279.4064  80.6525 15.70966083 77646","category":"Starlink"},{"name":"STARLINK-37009","line1":"1 68208U 26053B   26135.24098853  .00027236  00000+0  84212-3 0  9995","line2":"2 68208  97.2861  10.7770 0002100 103.4972 256.6505 15.33474387 10410","category":"Starlink"},{"name":"STARLINK-3616","line1":"1 51782U 22017Q   26135.05505750 -.00000670  00000+0 -23975-4 0  9993","line2":"2 51782  53.2180  51.3476 0001731  80.5779 279.5409 15.08840505232209","category":"Starlink"},{"name":"STARLINK-34988","line1":"1 65453U 25194V   26135.19503660  .00001757  00000+0  12862-3 0  9992","line2":"2 65453  97.5332 350.6001 0002341  73.2050 286.9434 15.04837274 39702","category":"Starlink"},{"name":"FENGYUN 1C DEB","line1":"1 29890U 99025GL  26104.85186029  .00001533  00000+0  69048-3 0  9996","line2":"2 29890  99.4758 240.6865 0016079  92.6239 267.6778 14.23852218992028","category":"Weather"},{"name":"STARLINK-1333","line1":"1 45580U 20025BB  26135.27835038  .00034384  00000+0  10666-2 0  9996","line2":"2 45580  53.1553 128.1160 0004111  45.1277 315.0058 15.33106676335706","category":"Starlink"},{"name":"STARLINK-5786","line1":"1 56032U 23042AY  26135.33334491 -.00016762  00000+0 -60069-3 0  9991","line2":"2 56032  43.0017  28.9963 0001283 267.7698 180.2449 15.27594969  5829","category":"Starlink"},{"name":"STARLINK-11595 [DTC]","line1":"1 63669U 25085F   26135.29007487  .00104190  00000+0  80273-3 0  9991","line2":"2 63669  43.0028 237.2139 0005375 292.8657  67.1643 15.70902119 61363","category":"Starlink"},{"name":"STARLINK-6365","line1":"1 76365C 23094V   23189.75534722  .00518801  00000-0  74652-3 0  1894","line2":"2 76365  42.9965 313.6024 0077140 152.4567 344.5781 15.98133083    16","category":"Starlink"},{"name":"STARLINK-4149","line1":"1 53290U 22086BA  26135.29286031  .00000495  00000+0  49184-4 0  9992","line2":"2 53290  53.2170 245.1309 0001167  87.8677 272.2449 15.08838765211242","category":"Starlink"},{"name":"STARLINK-32141","line1":"1 60290U 24132N   26135.19745505  .00002165  00000+0  85200-4 0  9994","line2":"2 60290  53.1600 103.4635 0001228  87.9496 272.1646 15.30205053101747","category":"Starlink"},{"name":"STARLINK-35600","line1":"1 66510U 25263AB  26134.26391779  .00010829  00000+0  40227-3 0  9993","line2":"2 66510  43.0022 340.7138 0001395 274.8055  85.2637 15.27594375 28926","category":"Starlink"},{"name":"FENGYUN 1C DEB","line1":"1 31312U 99025BPQ 26091.47101720  .00000436  00000+0  31517-3 0  9997","line2":"2 31312  98.8707  78.9767 0058088 291.6604 223.3322 14.01090222966821","category":"Weather"},{"name":"STARLINK-2053","line1":"1 47663U 21012AV  23362.17234562  .00008897  00000+0  61545-3 0  9993","line2":"2 47663  53.0548 334.5798 0001388  96.1372 263.9775 15.06400143159907","category":"Starlink"},{"name":"STARLINK-5831","line1":"1 57332U 23099E   26135.29404395  .00000507  00000+0  27957-4 0  9991","line2":"2 57332  43.0020 236.1725 0001003 270.5179  89.5558 15.27576734156269","category":"Starlink"},{"name":"COSMOS 2437","line1":"1 32954U 08025B   26135.29049236 -.00000015  00000+0 -17879-3 0  9992","line2":"2 32954  82.5058  17.9192 0021475  42.6839  50.9095 12.42758344815285","category":"Other"},{"name":"STARLINK-32386","line1":"1 61213U 24171P   26135.25002315 -.00012685  00000+0 -37495-3 0  9997","line2":"2 61213  53.1598  12.9028 0001301  60.9296 329.0484 15.33554289  5870","category":"Starlink"},{"name":"STARLINK-36221","line1":"1 67215U 25304Z   26135.06380898  .00003188  00000+0  27476-3 0  9992","line2":"2 67215  70.0011   7.2329 0002738 267.6648  92.4198 14.98338516 23820","category":"Starlink"},{"name":"STARLINK-2727","line1":"1 48652U 21044Q   26135.33334491  .01153480  00000+0  10221-1 0  9991","line2":"2 48652  53.0479 153.2613 0001187  82.1272 245.0366 15.65448227  5831","category":"Starlink"},{"name":"STARLINK-30765","line1":"1 58119U 23162B   26135.28335988  .00000449  00000+0  25856-4 0  9997","line2":"2 58119  43.0047 116.2308 0001616 264.9761  95.0906 15.27581734142496","category":"Starlink"},{"name":"STARLINK-11748 [DTC]","line1":"1 64373U 25127D   26134.47461620  .00175896  00000+0  13388-2 0  9996","line2":"2 64373  43.0019  48.4546 0002146 280.1187  79.9439 15.70957174 53840","category":"Starlink"},{"name":"STARLINK-5231","line1":"1 54182U 22141AB  26135.12445084  .00000452  00000+0  46512-4 0  9997","line2":"2 54182  53.2180  35.5175 0001513  90.0298 270.0868 15.08844386196313","category":"Starlink"},{"name":"COSMOS 2251 DEB","line1":"1 35975U 93036AVR 26102.73527335  .00001663  00000+0  64061-3 0  9991","line2":"2 35975  74.0476 110.8087 0110998 163.5430 196.9371 14.27706013658280","category":"Other"},{"name":"DRAGON CRS-31 DEB","line1":"1 62608U 24200B   25029.65332789  .05515617  12458-4  39522-3 0  9999","line2":"2 62608  51.6226 259.7984 0005990 314.7115  89.5839 16.40053217  2479","category":"Other"},{"name":"STARLINK-36974","line1":"1 68272U 26055L   26135.13719158  .00020386  00000+0  61263-3 0  9994","line2":"2 68272  53.1597  12.1298 0001067  96.1228 263.9896 15.34410664 10088","category":"Starlink"},{"name":"STARLINK-3545","line1":"1 51855U 22022D   26135.27306768  .00000140  00000+0  26883-4 0  9993","line2":"2 51855  53.2176  80.1388 0001637  88.1870 271.9309 15.08838569233021","category":"Starlink"},{"name":"STARLINK-31590","line1":"1 59198U 24045W   26135.16276810  .00004326  00000+0  16651-3 0  9991","line2":"2 59198  43.0040  77.4746 0000965 256.0191 104.0554 15.27605893123320","category":"Starlink"},{"name":"STARLINK-35228","line1":"1 65517U 25198AB  26133.24411508  .00011720  00000+0  35746-3 0  9997","line2":"2 65517  53.1587 330.4333 0000954  67.9619 292.1484 15.34398982 38519","category":"Starlink"},{"name":"FENGYUN 1C DEB","line1":"1 29962U 99025KL  26104.80589330 -.00000031  00000+0  69649-5 0  9995","line2":"2 29962  98.7675 114.3333 0109291 234.6092 304.0329 14.07247354987280","category":"Weather"}]}